[{"OBJECT_NAME":"KUIPER-00010","OBJECT_ID":"2025-088C","EPOCH":"2026-03-09T10:30:02.594592","MEAN_MOTION":14.79927563,"ECCENTRICITY":8.633e-5,"INCLINATION":51.9033,"RA_OF_ASC_NODE":84.2077,"ARG_OF_PERICENTER":64.2847,"MEAN_ANOMALY":295.8205,"EPHEMERIS_TYPE":0,"CLASSIFICATION_TYPE":"U","NORAD_CAT_ID":63726,"ELEMENT_SET_NO":999,"REV_AT_EPOCH":4769,"BSTAR":-1.9482455e-5,"MEAN_MOTION_DOT":-3.7e-6,"MEAN_MOTION_DDOT":0},{"OBJECT_NAME":"SL-14 R\/B","OBJECT_ID":"1987-038B","EPOCH":"2026-03-09T16:49:27.049728","MEAN_MOTION":14.85369371,"ECCENTRICITY":0.00196849,"INCLINATION":82.5,"RA_OF_ASC_NODE":296.7973,"ARG_OF_PERICENTER":160.3861,"MEAN_ANOMALY":199.8117,"EPHEMERIS_TYPE":0,"CLASSIFICATION_TYPE":"U","NORAD_CAT_ID":17912,"ELEMENT_SET_NO":999,"REV_AT_EPOCH":7923,"BSTAR":5.9620516e-5,"MEAN_MOTION_DOT":5.39e-6,"MEAN_MOTION_DDOT":0}]
